ONEWEB-0267             
1 48985U 21060U   24240.62711053  .00000165  00000+0  39748-3 0  9995
2 48985  87.9163 359.9047 0001441 105.5065 254.6225 13.16595702154228
ONEWEB-0268             
1 48986U 21060V   24241.05141530 -.00000014  00000+0 -70358-4 0  9999
2 48986  87.9164 359.8266 0001677  95.0654 265.0669 13.16595960154549
ONEWEB-0269             
1 48987U 21060W   24240.57644616  .00000638  00000+0  16358-2 0  9997
2 48987  87.9167 359.9486 0001798  97.0442 263.0894 13.16590558152969
ONEWEB-0270             
1 48988U 21060X   24241.35382878 -.00000021  00000+0 -87641-4 0  9997
2 48988  87.9162 359.7742 0001627 117.1365 242.9932 13.16595534154417
ONEWEB-0271             
1 48989U 21060Y   24241.41716045  .00000144  00000+0  34337-3 0  9999
2 48989  87.9164 359.7393 0001513 108.4826 251.6469 13.16596029154402
ONEWEB-0272             
1 48990U 21060Z   24240.60335687  .00000074  00000+0  15888-3 0  9992
2 48990  87.9165 359.9299 0001547 103.4341 256.6962 13.16592523152952
ONEWEB-0273             
1 48991U 21060AA  24241.08151049  .00000084  00000+0  18562-3 0  9997
2 48991  87.9165 359.8216 0001776 105.3947 254.7381 13.16594918154291
ONEWEB-0274             
1 48992U 21060AB  24240.57486030  .00000118  00000+0  27402-3 0  9993
2 48992  87.9172 359.9407 0001385  86.5465 273.5825 13.16595963152969
